LEMUR-2-KATIE           
1 67387U 26004AA  26040.58500302  .00006203  00000+0  66854-3 0  9990
2 67387  97.8029  41.3076 0004199 131.9572 228.2003 14.88774662  4318
LEMUR-2-HCS-BAZUS       
1 67388U 26004AB  26040.58278786  .00005709  00000+0  61431-3 0  9995
2 67388  97.8017  41.3080 0003687 123.3444 236.8126 14.88871778  4312
TWILIGHT-1 OBJECT AC    
1 67389U 26004AC  26040.57148103  .00005561  00000+0  28300-3 0  9998
2 67389  97.4579  41.4738 0005217  73.8473 286.3334 15.17211133  4390
CONNECTA IOT-16         
1 67390U 26004AD  26040.57221340  .00009718  00000+0  49606-3 0  9995
2 67390  97.4580  41.4743 0005478  70.5411 289.6414 15.16906453  4395
FLAMINGO-1              
1 67391U 26004AE  26040.50196285  .00013949  00000+0  70222-3 0  9997
2 67391  97.4528  41.3950 0006571  64.5720 295.6193 15.17295287  4385
HAWK-13A                
1 67392U 26004AF  26040.55852695  .00013236  00000+0  65016-3 0  9991
2 67392  97.4429  41.3956 0007697  64.3752 295.8277 15.18159676  4393
HAWK-13C                
1 67393U 26004AG  26040.62409073  .00010322  00000+0  50964-3 0  9997
2 67393  97.4573  41.5800 0007435  68.1853 292.0171 15.18045289  4406
TWILIGHT-1 OBJECT AH    
1 67394U 26004AH  26040.61548467  .00006638  00000+0  32662-3 0  9998
2 67394  97.4477  41.5280 0010551  66.3321 293.9019 15.18283014  4406
TWILIGHT-1 OBJECT AJ    
1 67395U 26004AJ  26040.53368330  .00003101  00000+0  34533-3 0  9990
2 67395  97.8017  41.2190 0005304 173.0883 187.0407 14.87810035  4292
HAWK-13B                
1 67396U 26004AK  26040.55745621  .00009456  00000+0  46958-3 0  9998
2 67396  97.4516  41.4668 0008842  66.5670 293.6492 15.17859340  4390
CARBSAR                 
1 67397U 26004AL  26040.55952359  .00011072  00000+0  54852-3 0  9996
2 67397  97.4536  41.4728 0007866  70.8834 289.3250 15.17904768  4394
TWILIGHT-1 OBJECT AM    
1 67398U 26004AM  26040.55597340  .00009556  00000+0  47270-3 0  9992
2 67398  97.4574  41.4909 0009008  74.9478 285.2752 15.17990622  4393
