CCSDS_OMM_VERS = 2.0
CREATION_DATE  = 
ORIGINATOR     = 

OBJECT_NAME    = LEMUR-2-KATIE
OBJECT_ID      = 2026-004AA
CENTER_NAME    = EARTH
REF_FRAME      = TEME
TIME_SYSTEM    = UTC
MEAN_ELEMENT_THEORY = SGP/SGP4

EPOCH          = 2026-02-09T14:02:24.260928
MEAN_MOTION    = 14.88774662
ECCENTRICITY   = .0004199
INCLINATION    = 97.8029
RA_OF_ASC_NODE = 41.3076
ARG_OF_PERICENTER = 131.9572
MEAN_ANOMALY   = 228.2003

EPHEMERIS_TYPE = 0
CLASSIFICATION_TYPE = U
NORAD_CAT_ID   = 67387
ELEMENT_SET_NO = 999
REV_AT_EPOCH   = 431
BSTAR          = .66854E-3
MEAN_MOTION_DOT = .6203E-4
MEAN_MOTION_DDOT = 0

CCSDS_OMM_VERS = 2.0
CREATION_DATE  = 
ORIGINATOR     = 

OBJECT_NAME    = LEMUR-2-HCS-BAZUS
OBJECT_ID      = 2026-004AB
CENTER_NAME    = EARTH
REF_FRAME      = TEME
TIME_SYSTEM    = UTC
MEAN_ELEMENT_THEORY = SGP/SGP4

EPOCH          = 2026-02-09T13:59:12.871104
MEAN_MOTION    = 14.88871778
ECCENTRICITY   = .0003687
INCLINATION    = 97.8017
RA_OF_ASC_NODE = 41.3080
ARG_OF_PERICENTER = 123.3444
MEAN_ANOMALY   = 236.8126

EPHEMERIS_TYPE = 0
CLASSIFICATION_TYPE = U
NORAD_CAT_ID   = 67388
ELEMENT_SET_NO = 999
REV_AT_EPOCH   = 431
BSTAR          = .61431E-3
MEAN_MOTION_DOT = .5709E-4
MEAN_MOTION_DDOT = 0

CCSDS_OMM_VERS = 2.0
CREATION_DATE  = 
ORIGINATOR     = 

OBJECT_NAME    = TWILIGHT-1 OBJECT AC
OBJECT_ID      = 2026-004AC
CENTER_NAME    = EARTH
REF_FRAME      = TEME
TIME_SYSTEM    = UTC
MEAN_ELEMENT_THEORY = SGP/SGP4

EPOCH          = 2026-02-09T13:42:55.960992
MEAN_MOTION    = 15.17211133
ECCENTRICITY   = .0005217
INCLINATION    = 97.4579
RA_OF_ASC_NODE = 41.4738
ARG_OF_PERICENTER = 73.8473
MEAN_ANOMALY   = 286.3334

EPHEMERIS_TYPE = 0
CLASSIFICATION_TYPE = U
NORAD_CAT_ID   = 67389
ELEMENT_SET_NO = 999
REV_AT_EPOCH   = 439
BSTAR          = .283E-3
MEAN_MOTION_DOT = .5561E-4
MEAN_MOTION_DDOT = 0

CCSDS_OMM_VERS = 2.0
CREATION_DATE  = 
ORIGINATOR     = 

OBJECT_NAME    = CONNECTA IOT-16
OBJECT_ID      = 2026-004AD
CENTER_NAME    = EARTH
REF_FRAME      = TEME
TIME_SYSTEM    = UTC
MEAN_ELEMENT_THEORY = SGP/SGP4

EPOCH          = 2026-02-09T13:43:59.237760
MEAN_MOTION    = 15.16906453
ECCENTRICITY   = .0005478
INCLINATION    = 97.4580
RA_OF_ASC_NODE = 41.4743
ARG_OF_PERICENTER = 70.5411
MEAN_ANOMALY   = 289.6414

EPHEMERIS_TYPE = 0
CLASSIFICATION_TYPE = U
NORAD_CAT_ID   = 67390
ELEMENT_SET_NO = 999
REV_AT_EPOCH   = 439
BSTAR          = .49606E-3
MEAN_MOTION_DOT = .9718E-4
MEAN_MOTION_DDOT = 0

CCSDS_OMM_VERS = 2.0
CREATION_DATE  = 
ORIGINATOR     = 

OBJECT_NAME    = FLAMINGO-1
OBJECT_ID      = 2026-004AE
CENTER_NAME    = EARTH
REF_FRAME      = TEME
TIME_SYSTEM    = UTC
MEAN_ELEMENT_THEORY = SGP/SGP4

EPOCH          = 2026-02-09T12:02:49.590240
MEAN_MOTION    = 15.17295287
ECCENTRICITY   = .0006571
INCLINATION    = 97.4528
RA_OF_ASC_NODE = 41.3950
ARG_OF_PERICENTER = 64.5720
MEAN_ANOMALY   = 295.6193

EPHEMERIS_TYPE = 0
CLASSIFICATION_TYPE = U
NORAD_CAT_ID   = 67391
ELEMENT_SET_NO = 999
REV_AT_EPOCH   = 438
BSTAR          = .70222312E-3
MEAN_MOTION_DOT = .13949E-3
MEAN_MOTION_DDOT = 0

CCSDS_OMM_VERS = 2.0
CREATION_DATE  = 
ORIGINATOR     = 

OBJECT_NAME    = HAWK-13A
OBJECT_ID      = 2026-004AF
CENTER_NAME    = EARTH
REF_FRAME      = TEME
TIME_SYSTEM    = UTC
MEAN_ELEMENT_THEORY = SGP/SGP4

EPOCH          = 2026-02-09T13:24:16.728480
MEAN_MOTION    = 15.18159676
ECCENTRICITY   = .0007697
INCLINATION    = 97.4429
RA_OF_ASC_NODE = 41.3956
ARG_OF_PERICENTER = 64.3752
MEAN_ANOMALY   = 295.8277

EPHEMERIS_TYPE = 0
CLASSIFICATION_TYPE = U
NORAD_CAT_ID   = 67392
ELEMENT_SET_NO = 999
REV_AT_EPOCH   = 439
BSTAR          = .65016E-3
MEAN_MOTION_DOT = .13236E-3
MEAN_MOTION_DDOT = 0

CCSDS_OMM_VERS = 2.0
CREATION_DATE  = 
ORIGINATOR     = 

OBJECT_NAME    = HAWK-13C
OBJECT_ID      = 2026-004AG
CENTER_NAME    = EARTH
REF_FRAME      = TEME
TIME_SYSTEM    = UTC
MEAN_ELEMENT_THEORY = SGP/SGP4

EPOCH          = 2026-02-09T14:58:41.439072
MEAN_MOTION    = 15.18045289
ECCENTRICITY   = .00074358
INCLINATION    = 97.4573
RA_OF_ASC_NODE = 41.5800
ARG_OF_PERICENTER = 68.1853
MEAN_ANOMALY   = 292.0171

EPHEMERIS_TYPE = 0
CLASSIFICATION_TYPE = U
NORAD_CAT_ID   = 67393
ELEMENT_SET_NO = 999
REV_AT_EPOCH   = 440
BSTAR          = .50964394E-3
MEAN_MOTION_DOT = .10322E-3
MEAN_MOTION_DDOT = 0

CCSDS_OMM_VERS = 2.0
CREATION_DATE  = 
ORIGINATOR     = 

OBJECT_NAME    = TWILIGHT-1 OBJECT AH
OBJECT_ID      = 2026-004AH
CENTER_NAME    = EARTH
REF_FRAME      = TEME
TIME_SYSTEM    = UTC
MEAN_ELEMENT_THEORY = SGP/SGP4

EPOCH          = 2026-02-09T14:46:17.875488
MEAN_MOTION    = 15.18283014
ECCENTRICITY   = .0010551
INCLINATION    = 97.4477
RA_OF_ASC_NODE = 41.5280
ARG_OF_PERICENTER = 66.3321
MEAN_ANOMALY   = 293.9019

EPHEMERIS_TYPE = 0
CLASSIFICATION_TYPE = U
NORAD_CAT_ID   = 67394
ELEMENT_SET_NO = 999
REV_AT_EPOCH   = 440
BSTAR          = .32662E-3
MEAN_MOTION_DOT = .6638E-4
MEAN_MOTION_DDOT = 0

CCSDS_OMM_VERS = 2.0
CREATION_DATE  = 
ORIGINATOR     = 

OBJECT_NAME    = TWILIGHT-1 OBJECT AJ
OBJECT_ID      = 2026-004AJ
CENTER_NAME    = EARTH
REF_FRAME      = TEME
TIME_SYSTEM    = UTC
MEAN_ELEMENT_THEORY = SGP/SGP4

EPOCH          = 2026-02-09T12:48:30.237120
MEAN_MOTION    = 14.87810035
ECCENTRICITY   = .0005304
INCLINATION    = 97.8017
RA_OF_ASC_NODE = 41.2190
ARG_OF_PERICENTER = 173.0883
MEAN_ANOMALY   = 187.0407

EPHEMERIS_TYPE = 0
CLASSIFICATION_TYPE = U
NORAD_CAT_ID   = 67395
ELEMENT_SET_NO = 999
REV_AT_EPOCH   = 429
BSTAR          = .34533E-3
MEAN_MOTION_DOT = .3101E-4
MEAN_MOTION_DDOT = 0

CCSDS_OMM_VERS = 2.0
CREATION_DATE  = 
ORIGINATOR     = 

OBJECT_NAME    = HAWK-13B
OBJECT_ID      = 2026-004AK
CENTER_NAME    = EARTH
REF_FRAME      = TEME
TIME_SYSTEM    = UTC
MEAN_ELEMENT_THEORY = SGP/SGP4

EPOCH          = 2026-02-09T13:22:44.216544
MEAN_MOTION    = 15.17859340
ECCENTRICITY   = .0008842
INCLINATION    = 97.4516
RA_OF_ASC_NODE = 41.4668
ARG_OF_PERICENTER = 66.5670
MEAN_ANOMALY   = 293.6492

EPHEMERIS_TYPE = 0
CLASSIFICATION_TYPE = U
NORAD_CAT_ID   = 67396
ELEMENT_SET_NO = 999
REV_AT_EPOCH   = 439
BSTAR          = .46958E-3
MEAN_MOTION_DOT = .9456E-4
MEAN_MOTION_DDOT = 0

CCSDS_OMM_VERS = 2.0
CREATION_DATE  = 
ORIGINATOR     = 

OBJECT_NAME    = CARBSAR
OBJECT_ID      = 2026-004AL
CENTER_NAME    = EARTH
REF_FRAME      = TEME
TIME_SYSTEM    = UTC
MEAN_ELEMENT_THEORY = SGP/SGP4

EPOCH          = 2026-02-09T13:25:42.838176
MEAN_MOTION    = 15.17904768
ECCENTRICITY   = .0007866
INCLINATION    = 97.4536
RA_OF_ASC_NODE = 41.4728
ARG_OF_PERICENTER = 70.8834
MEAN_ANOMALY   = 289.3250

EPHEMERIS_TYPE = 0
CLASSIFICATION_TYPE = U
NORAD_CAT_ID   = 67397
ELEMENT_SET_NO = 999
REV_AT_EPOCH   = 439
BSTAR          = .54852E-3
MEAN_MOTION_DOT = .11072E-3
MEAN_MOTION_DDOT = 0

CCSDS_OMM_VERS = 2.0
CREATION_DATE  = 
ORIGINATOR     = 

OBJECT_NAME    = TWILIGHT-1 OBJECT AM
OBJECT_ID      = 2026-004AM
CENTER_NAME    = EARTH
REF_FRAME      = TEME
TIME_SYSTEM    = UTC
MEAN_ELEMENT_THEORY = SGP/SGP4

EPOCH          = 2026-02-09T13:20:36.101760
MEAN_MOTION    = 15.17990622
ECCENTRICITY   = .0009008
INCLINATION    = 97.4574
RA_OF_ASC_NODE = 41.4909
ARG_OF_PERICENTER = 74.9478
MEAN_ANOMALY   = 285.2752

EPHEMERIS_TYPE = 0
CLASSIFICATION_TYPE = U
NORAD_CAT_ID   = 67398
ELEMENT_SET_NO = 999
REV_AT_EPOCH   = 439
BSTAR          = .4727E-3
MEAN_MOTION_DOT = .9556E-4
MEAN_MOTION_DDOT = 0

